*******************************************************************************
Ephemeris / WWW_USER Tue Mar 27 22:27:33 2018 Pasadena, USA      / Horizons    
*******************************************************************************
Target body name: Pluto Barycenter (9)            {source: de433}
Center body name: Solar System Barycenter (0)     {source: DE431mx}
Center-site name: BODY CENTER
*******************************************************************************
Start time      : A.D. 2018-Feb-08 00:00:00.0000 TDB
Stop  time      : A.D. 2019-Feb-08 00:00:00.0000 TDB
Step-size       : 7200 minutes
*******************************************************************************
Center geodetic : 0.00000000,0.00000000,0.0000000 {E-lon(deg),Lat(deg),Alt(km)}
Center cylindric: 0.00000000,0.00000000,0.0000000 {E-lon(deg),Dxy(km),Dz(km)}
Center radii    : (undefined)                                                  
Output units    : AU-D                                                         
Output type     : GEOMETRIC cartesian states
Output format   : 2 (position and velocity)
Reference frame : ICRF/J2000.0                                                 
Coordinate systm: Ecliptic and Mean Equinox of Reference Epoch                 
*******************************************************************************
JDTDB
   X     Y     Z
   VX    VY    VZ
*******************************************************************************
$$SOE
2458157.500000000 = A.D. 2018-Feb-08 00:00:00.0000 TDB 
   1.089368420646493E+01 -3.167280673881848E+01  2.380856530309617E-01
   3.035879980920161E-03  3.630677724503612E-04 -9.170108424320436E-04
2458162.500000000 = A.D. 2018-Feb-13 00:00:00.0000 TDB 
   1.090886253204792E+01 -3.167098827854628E+01  2.335005755095491E-01
   3.035450172903643E-03  3.643162652119574E-04 -9.170201355636033E-04
2458167.500000000 = A.D. 2018-Feb-18 00:00:00.0000 TDB 
   1.092403870740059E+01 -3.166916357687862E+01  2.289154519809226E-01
   3.035019888861661E-03  3.655643306114904E-04 -9.170292453347196E-04
2458172.500000000 = A.D. 2018-Feb-23 00:00:00.0000 TDB 
   1.093921273014384E+01 -3.166733263595266E+01  2.243302833616315E-01
   3.034589129202175E-03  3.668119685121365E-04 -9.170381718472392E-04
2458177.500000000 = A.D. 2018-Feb-28 00:00:00.0000 TDB 
   1.095438459790060E+01 -3.166549545790622E+01  2.197450705677132E-01
   3.034157894333271E-03  3.680591787768016E-04 -9.170469152028148E-04
2458182.500000000 = A.D. 2018-Mar-05 00:00:00.0000 TDB 
   1.096955430829584E+01 -3.166365204487785E+01  2.151598145146956E-01
   3.033726184663080E-03  3.693059612689937E-04 -9.170554755031248E-04
2458187.500000000 = A.D. 2018-Mar-10 00:00:00.0000 TDB 
   1.098472185895657E+01 -3.166180239900672E+01  2.105745161176025E-01
   3.033294000599770E-03  3.705523158528235E-04 -9.170638528498732E-04
2458192.500000000 = A.D. 2018-Mar-15 00:00:00.0000 TDB 
   1.099988724751186E+01 -3.165994652243272E+01  2.059891762909496E-01
   3.032861342551552E-03  3.717982423930051E-04 -9.170720473447884E-04
2458197.500000000 = A.D. 2018-Mar-20 00:00:00.0000 TDB 
   1.101505047159279E+01 -3.165808441729642E+01  2.014037959487408E-01
   3.032428210926412E-03  3.730437407538341E-04 -9.170800590895582E-04
2458202.500000000 = A.D. 2018-Mar-25 00:00:00.0000 TDB 
   1.103021152883251E+01 -3.165621608573904E+01  1.968183760044687E-01
   3.031994606132808E-03  3.742888108010951E-04 -9.170878881857766E-04
2458207.500000000 = A.D. 2018-Mar-30 00:00:00.0000 TDB 
   1.104537041686619E+01 -3.165434152990248E+01  1.922329173711253E-01
   3.031560528579088E-03  3.755334524001206E-04 -9.170955347352548E-04
2458212.500000000 = A.D. 2018-Apr-04 00:00:00.0000 TDB 
   1.106052713333105E+01 -3.165246075192934E+01  1.876474209611909E-01
   3.031125978673643E-03  3.767776654166334E-04 -9.171029988397500E-04
2458217.500000000 = A.D. 2018-Apr-09 00:00:00.0000 TDB 
   1.107568167586635E+01 -3.165057375396285E+01  1.830618876866343E-01
   3.030690956824908E-03  3.780214497167460E-04 -9.171102806009658E-04
2458222.500000000 = A.D. 2018-Apr-14 00:00:00.0000 TDB 
   1.109083404211341E+01 -3.164868053814693E+01  1.784763184589177E-01
   3.030255463441363E-03  3.792648051669618E-04 -9.171173801205516E-04
2458227.500000000 = A.D. 2018-Apr-19 00:00:00.0000 TDB 
   1.110598422971556E+01 -3.164678110662615E+01  1.738907141889977E-01
   3.029819498931573E-03  3.805077316341222E-04 -9.171242975002111E-04
2458232.500000000 = A.D. 2018-Apr-24 00:00:00.0000 TDB 
   1.112113223631819E+01 -3.164487546154578E+01  1.693050757873117E-01
   3.029383063704452E-03  3.817502289855815E-04 -9.171310328419086E-04
2458237.500000000 = A.D. 2018-Apr-29 00:00:00.0000 TDB 
   1.113627805956875E+01 -3.164296360505171E+01  1.647194041638045E-01
   3.028946158168650E-03  3.829922970885937E-04 -9.171375862473320E-04
2458242.500000000 = A.D. 2018-May-04 00:00:00.0000 TDB 
   1.115142169711671E+01 -3.164104553929053E+01  1.601337002278980E-01
   3.028508782732785E-03  3.842339358106602E-04 -9.171439578181876E-04
2458247.500000000 = A.D. 2018-May-09 00:00:00.0000 TDB 
   1.116656314661360E+01 -3.163912126640947E+01  1.555479648885107E-01
   3.028070937805515E-03  3.854751450196451E-04 -9.171501476562291E-04
2458252.500000000 = A.D. 2018-May-14 00:00:00.0000 TDB 
   1.118170240571297E+01 -3.163719078855641E+01  1.509621990540543E-01
   3.027632623795538E-03  3.867159245837774E-04 -9.171561558632568E-04
2458257.500000000 = A.D. 2018-May-19 00:00:00.0000 TDB 
   1.119683947207043E+01 -3.163525410787991E+01  1.463764036324256E-01
   3.027193841111568E-03  3.879562743716994E-04 -9.171619825410998E-04
2458262.500000000 = A.D. 2018-May-24 00:00:00.0000 TDB 
   1.121197434334364E+01 -3.163331122652920E+01  1.417905795310225E-01
   3.026754590162332E-03  3.891961942521294E-04 -9.171676277913720E-04
2458267.500000000 = A.D. 2018-May-29 00:00:00.0000 TDB 
   1.122710701719229E+01 -3.163136214665413E+01  1.372047276567220E-01
   3.026314871356617E-03  3.904356840942197E-04 -9.171730917159214E-04
2458272.500000000 = A.D. 2018-Jun-03 00:00:00.0000 TDB 
   1.124223749127813E+01 -3.162940687040521E+01  1.326188489159037E-01
   3.025874685103086E-03  3.916747437678209E-04 -9.171783744166276E-04
2458277.500000000 = A.D. 2018-Jun-08 00:00:00.0000 TDB 
   1.125736576326492E+01 -3.162744539993361E+01  1.280329442144244E-01
   3.025434031810415E-03  3.929133731428625E-04 -9.171834759953125E-04
2458282.500000000 = A.D. 2018-Jun-13 00:00:00.0000 TDB 
   1.127249183081851E+01 -3.162547773739116E+01  1.234470144576486E-01
   3.024992911887284E-03  3.941515720893519E-04 -9.171883965537408E-04
2458287.500000000 = A.D. 2018-Jun-18 00:00:00.0000 TDB 
   1.128761569160676E+01 -3.162350388493031E+01  1.188610605504179E-01
   3.024551325742384E-03  3.953893404773751E-04 -9.171931361936198E-04
2458292.500000000 = A.D. 2018-Jun-23 00:00:00.0000 TDB 
   1.130273734329958E+01 -3.162152384470420E+01  1.142750833970752E-01
   3.024109273784713E-03  3.966266781782115E-04 -9.171976950170118E-04
2458297.500000000 = A.D. 2018-Jun-28 00:00:00.0000 TDB 
   1.131785678356893E+01 -3.161953761886656E+01  1.096890839014404E-01
   3.023666756422931E-03  3.978635850632350E-04 -9.172020731254969E-04
2458302.500000000 = A.D. 2018-Jul-03 00:00:00.0000 TDB 
   1.133297401008882E+01 -3.161754520957181E+01  1.051030629668414E-01
   3.023223774065916E-03  3.991000610037588E-04 -9.172062706210628E-04
2458307.500000000 = A.D. 2018-Jul-08 00:00:00.0000 TDB 
   1.134808902053528E+01 -3.161554661897498E+01  1.005170214960813E-01
   3.022780327122622E-03  4.003361058715408E-04 -9.172102876056871E-04
2458312.500000000 = A.D. 2018-Jul-13 00:00:00.0000 TDB 
   1.136320181258641E+01 -3.161354184923176E+01  9.593096039146454E-02
   3.022336416002007E-03  4.015717195386592E-04 -9.172141241812221E-04
2458317.500000000 = A.D. 2018-Jul-18 00:00:00.0000 TDB 
   1.137831238392235E+01 -3.161153090249847E+01  9.134488055478247E-02
   3.021892041113030E-03  4.028069018775127E-04 -9.172177804493979E-04
2458322.500000000 = A.D. 2018-Jul-23 00:00:00.0000 TDB 
   1.139342073222528E+01 -3.160951378093208E+01  8.675878288731477E-02
   3.021447202864704E-03  4.040416527609749E-04 -9.172212565120116E-04
2458327.500000000 = A.D. 2018-Jul-28 00:00:00.0000 TDB 
   1.140852685517942E+01 -3.160749048669017E+01  8.217266828983587E-02
   3.021001901666240E-03  4.052759720613728E-04 -9.172245524712733E-04
2458332.500000000 = A.D. 2018-Aug-02 00:00:00.0000 TDB 
   1.142363075047104E+01 -3.160546102193099E+01  7.758653766260389E-02
   3.020556137926742E-03  4.065098596514849E-04 -9.172276684289499E-04
2458337.500000000 = A.D. 2018-Aug-07 00:00:00.0000 TDB 
   1.143873241578847E+01 -3.160342538881338E+01  7.300039190537648E-02
   3.020109912055325E-03  4.077433154048138E-04 -9.172306044869287E-04
2458342.500000000 = A.D. 2018-Aug-12 00:00:00.0000 TDB 
   1.145383184882206E+01 -3.160138358949688E+01  6.841423191739975E-02
   3.019663224461108E-03  4.089763391949916E-04 -9.172333607471142E-04
2458347.500000000 = A.D. 2018-Aug-17 00:00:00.0000 TDB 
   1.146892904726422E+01 -3.159933562614158E+01  6.382805859739860E-02
   3.019216075553216E-03  4.102089308957780E-04 -9.172359373114298E-04
2458352.500000000 = A.D. 2018-Aug-22 00:00:00.0000 TDB 
   1.148402400880941E+01 -3.159728150090827E+01  5.924187284360711E-02
   3.018768465740778E-03  4.114410903810625E-04 -9.172383342818158E-04
2458357.500000000 = A.D. 2018-Aug-27 00:00:00.0000 TDB 
   1.149911673115414E+01 -3.159522121595834E+01  5.465567555373502E-02
   3.018320395432790E-03  4.126728175248311E-04 -9.172405517602676E-04
2458362.500000000 = A.D. 2018-Sep-01 00:00:00.0000 TDB 
   1.151420721199693E+01 -3.159315477345381E+01  5.006946762499000E-02
   3.017871865038084E-03  4.139041122018040E-04 -9.172425898485038E-04
